[{"OBJECT_NAME":"STARLINK-4760","OBJECT_ID":"2022-114L","EPOCH":"2026-03-09T21:28:08.566176","MEAN_MOTION":15.08832573,"ECCENTRICITY":0.00012852,"INCLINATION":53.2179,"RA_OF_ASC_NODE":303.1086,"ARG_OF_PERICENTER":87.2167,"MEAN_ANOMALY":272.8972,"EPHEMERIS_TYPE":0,"CLASSIFICATION_TYPE":"U","NORAD_CAT_ID":53828,"ELEMENT_SET_NO":999,"REV_AT_EPOCH":19286,"BSTAR":-2.5403247e-5,"MEAN_MOTION_DOT":-6.92e-6,"MEAN_MOTION_DDOT":0},{"OBJECT_NAME":"OBJECT H","OBJECT_ID":"2025-292H","EPOCH":"2026-03-09T22:24:53.558208","MEAN_MOTION":15.06373042,"ECCENTRICITY":0.00142604,"INCLINATION":97.6442,"RA_OF_ASC_NODE":145.7846,"ARG_OF_PERICENTER":348.9217,"MEAN_ANOMALY":11.1694,"EPHEMERIS_TYPE":0,"CLASSIFICATION_TYPE":"U","NORAD_CAT_ID":67000,"ELEMENT_SET_NO":999,"REV_AT_EPOCH":1338,"BSTAR":0.0005462937,"MEAN_MOTION_DOT":8.001e-5,"MEAN_MOTION_DDOT":0}]
